SIRION PATHFINDER-2     
1 43759U 18099B   26131.90602777  .00002815  00000+0  15757-3 0  9999
2 43759  97.4283 181.8299 0010293  70.8991 289.3355 15.14209034407139
CORVUS BC4              
1 43767U 18099K   26131.06972625  .00003194  00000+0  18852-3 0  9997
2 43767  97.4100 175.1397 0009800 124.1393 236.0769 15.12188428406792
M2 PATHFINDER           
1 45727U 20037E   26131.26960603  .00001881  00000+0  13878-3 0  9999
2 45727  97.8165 322.0884 0010245 278.8246  81.1820 15.04513075319946
NETSAT-4                
1 46504U 20068U   26131.22973328  .00011889  00000+0  27496-3 0  9991
2 46504  97.8621 136.5388 0007676  95.0170 265.1952 15.42631433310079
NETSAT-3                
1 46505U 20068V   26131.92108748  .00011482  00000+0  27657-3 0  9993
2 46505  97.8668 135.5486 0007521 105.8095 254.3981 15.41417310310093
NETSAT-1                
1 46506U 20068W   26131.47962740  .00008038  00000+0  24890-3 0  9993
2 46506  97.8754 129.8268 0006700 125.9205 234.2659 15.33739661309676
NETSAT-2                
1 46507U 20068X   26131.76994214  .00014483  00000+0  31481-3 0  9992
2 46507  97.8635 136.8936 0006193 114.1091 246.0805 15.44440259310113
GREENCUBE (IO-117)      
1 53109U 22080E   26131.45410627 -.00000003  00000+0  00000+0 0  9994
2 53109  70.1441 311.0256 0008875 298.1354  61.8409  6.42583318 89707
SITRO-AIS 5 (KATYS)     
1 57176U 23091L   26131.94473324  .00006904  00000+0  25046-3 0  9998
2 57176  97.5083 195.5203 0010638 223.6599 136.3800 15.28610494158802
SITRO-AIS 6 (CHIRKIN)   
1 57192U 23091AC  26131.90753363  .00003575  00000+0  14500-3 0  9990
2 57192  97.5090 194.7896 0010802 227.5220 132.5105 15.25242688158757
SITRO-AIS 8 (ANOKHIN)   
1 57193U 23091AD  26131.89254815  .00007948  00000+0  26644-3 0  9997
2 57193  97.5078 196.9135 0009942 218.9790 141.0735 15.31142325158896
SITRO-AIS 7 (FARTUSHNIY)
1 57194U 23091AE  26131.90347305  .00003385  00000+0  13867-3 0  9991
2 57194  97.5088 194.6287 0010608 228.7710 131.2614 15.24948802158740
SITRO-AIS 10 (BURDAEV)  
1 57199U 23091AK  26131.94182110  .00011929  00000+0  32910-3 0  9994
2 57199  97.5099 201.6560 0006947 189.5194 170.5920 15.37228456159197
SITRO-AIS 9 (SHCHUKIN)  
1 57201U 23091AM  26131.89210557  .00011948  00000+0  33447-3 0  9996
2 57201  97.5097 201.3624 0007144 190.5520 169.5576 15.36773804159176
SITRO-AIS 12 (SMIRENNIY)
1 57204U 23091AQ  26131.88950228  .00012216  00000+0  33880-3 0  9994
2 57204  97.5109 201.8045 0006963 184.4019 175.7165 15.37058074159199
SITRO-AIS 11 (SHEFFER)  
1 57208U 23091AU  26131.91253613  .00011681  00000+0  32004-3 0  9998
2 57208  97.5107 202.0527 0006873 184.0415 176.0775 15.37449640159212
SITRO-AIS 25            
1 59066U 24039R   26131.92568950  .00002793  00000+0  21808-3 0  9993
2 59066  95.3921 210.1786 0147513  94.8872 266.9214 14.93254772119310
SITRO-AIS 26            
1 59067U 24039S   26131.92218819  .00002860  00000+0  22423-3 0  9999
2 59067  95.3925 210.0812 0147858  95.4252 266.3861 14.93057906119306
SITRO-AIS 27            
1 59068U 24039T   26131.96951187  .00003575  00000+0  27716-3 0  9990
2 59068  95.3922 210.3686 0147019  93.9955 267.8091 14.93468843119338
SITRO-AIS 28            
1 59071U 24039U   26131.94778698  .00003122  00000+0  24227-3 0  9998
2 59071  95.3920 210.3991 0146773  93.9296 267.8723 14.93502148119332
GRBBETA                 
1 60237U 24128C   26131.91286102  .00002460  00000+0  17746-3 0  9996
2 60237  61.9909 343.5060 0045404 127.1654 233.3599 15.06335740100805
OOV-CUBE (TUBSAT-30)    
1 60240U 24128F   26131.85590365  .00001439  00000+0  12083-3 0  9996
2 60240  61.9951 352.2411 0049033 125.8384 234.7277 15.02585018100652
ROBUSTA-3A (MEDITERRAN*)
1 60243U 24128J   26131.87919018  .00004747  00000+0  28829-3 0  9991
2 60243  61.9874 336.5855 0046190 120.9521 239.6125 15.11096414100930
LASARSAT                
1 62391U 24247Q   26131.64317313  .00020630  00000+0  44753-3 0  9997
2 62391  44.9739 107.1922 0004595 109.5737 250.5648 15.44103362 77661
CROCUBE                 
1 62394U 24247T   26131.94028848  .00024948  00000+0  51082-3 0  9994
2 62394  44.9711 103.4005 0004339 113.8628 246.2717 15.45699384 77730
FORESAIL-1 PRIME        
1 66778U 25276DS  26131.62212768  .00003214  00000+0  15972-3 0  9999
2 66778  97.4208 205.5700 0001679 192.8130 167.3062 15.18360338 24854
KNACKSAT-2              
1 67683U 98067XZ  26131.66763321  .00027184  00000+0  37638-3 0  9998
2 67683  51.6279 117.7017 0012594  63.6305 296.5978 15.56805390 14586
